NORAD_CAT_ID,OBJECT_NAME,OBJECT_TYPE,EPOCH,MEAN_MOTION,ECCENTRICITY,INCLINATION,RA_OF_ASC_NODE,ARG_OF_PERICENTER,MEAN_ANOMALY,BSTAR,MEAN_MOTION_DOT,MEAN_MOTION_DDOT,TLE_LINE0,TLE_LINE1,TLE_LINE2,SEMIMAJOR_AXIS,PERIOD,APOGEE,PERIGEE,DECAYED
55318.0,STARLINK-5180,PAYLOAD,2023-12-29 01:00:52,14.98328954,0.0002607,69.9984,225.6727,269.6121,90.4739,6.3469e-06,-1.7e-07,0.0,0 STARLINK-5180,1 55318U 23010BB  23363.04227579 -.00000017  00000-0  63469-5 0  9993,2 55318  69.9984 225.6727 0002607 269.6121  90.4739 14.98328954 53375,6950.196,96.107,573.873,570.249,0.0
55318.0,STARLINK-5180,PAYLOAD,2023-12-29 21:50:37,14.98331835,0.000249,69.9989,223.485,263.9476,96.1399,4.735e-05,4.72e-06,0.0,0 STARLINK-5180,1 55318U 23010BB  23363.91015248  .00000472  00000-0  47350-4 0  9991,2 55318  69.9989 223.4850 0002490 263.9476  96.1399 14.98331835 54696,6950.187,96.107,573.783,570.322,0.0
55318.0,STARLINK-5180,PAYLOAD,2023-12-30 01:02:53,14.98330477,0.0002627,69.9988,223.1481,269.604,90.4818,9.2041e-05,1.005e-05,0.0,0 STARLINK-5180,1 55318U 23010BB  23364.04367207  .00001005  00000-0  92041-4 0  9991,2 55318  69.9988 223.1481 0002627 269.6040  90.4818 14.98330477 53529,6950.191,96.107,573.882,570.231,0.0
55318.0,STARLINK-5180,PAYLOAD,2023-12-30 13:51:57,14.98329915,0.0002512,69.9991,221.8024,264.748,95.3392,3.1684e-05,2.85e-06,0.0,0 STARLINK-5180,1 55318U 23010BB  23364.57775320  .00000285  00000-0  31684-4 0  9993,2 55318  69.9991 221.8024 0002512 264.7480  95.3392 14.98329915 54794,6950.193,96.107,573.804,570.312,0.0
55318.0,STARLINK-5180,PAYLOAD,2023-12-30 21:52:38,14.9832948,0.0002522,69.9991,220.9605,263.6537,96.4335,2.3634e-05,1.89e-06,0.0,0 STARLINK-5180,1 55318U 23010BB  23364.91155340  .00000189  00000-0  23634-4 0  9994,2 55318  69.9991 220.9605 0002522 263.6537  96.4335 14.98329480 54843,6950.194,96.107,573.812,570.307,0.0
55318.0,STARLINK-5180,PAYLOAD,2023-12-31 01:04:54,14.9833027,0.0002511,69.9991,220.624,263.8993,96.188,3.089e-05,2.76e-06,0.0,0 STARLINK-5180,1 55318U 23010BB  23365.04507263  .00000276  00000-0  30890-4 0  9993,2 55318  69.9991 220.6240 0002511 263.8993  96.1880 14.98330270 53672,6950.192,96.107,573.802,570.312,0.0
55318.0,STARLINK-5180,PAYLOAD,2023-12-31 21:54:39,14.98330994,0.0002501,69.9993,218.436,263.9327,96.1547,-3.4395e-05,-5.03e-06,0.0,0 STARLINK-5180,1 55318U 23010BB  23365.91295273 -.00000503  00000-0 -34395-4 0  9993,2 55318  69.9993 218.4360 0002501 263.9327  96.1547 14.98330994 54992,6950.19,96.107,573.793,570.317,0.0
55318.0,STARLINK-5180,PAYLOAD,2024-01-01 13:55:59,14.98330763,0.0002554,69.9992,216.7527,265.0171,95.0697,-5.9634e-06,-1.64e-06,0.0,0 STARLINK-5180,1 55318U 23010BB  24001.58055139 -.00000164  00000-0 -59634-5 0  9996,2 55318  69.9992 216.7527 0002554 265.0171  95.0697 14.98330763 55095,6950.191,96.107,573.831,570.28,0.0
55318.0,STARLINK-5180,PAYLOAD,2024-01-01 20:20:31,14.983311,0.0002545,69.9991,216.0792,262.9487,97.1383,-3.5981e-07,-9.7e-07,0.0,0 STARLINK-5180,1 55318U 23010BB  24001.84759059 -.00000097  00000-0 -35981-6 0  9992,2 55318  69.9991 216.0792 0002545 262.9487  97.1383 14.98331100 53940,6950.189,96.107,573.823,570.286,0.0
55318.0,STARLINK-5180,PAYLOAD,2024-01-01 21:56:39,14.9833149,0.0002535,69.9991,215.9109,262.4186,97.6685,4.8989e-06,-3.4e-07,0.0,0 STARLINK-5180,1 55318U 23010BB  24001.91435010 -.00000034  00000-0  48989-5 0  9999,2 55318  69.9991 215.9109 0002535 262.4186  97.6685 14.98331490 55146,6950.188,96.107,573.815,570.291,0.0
55318.0,STARLINK-5180,PAYLOAD,2024-01-01 23:32:47,14.98331231,0.000264,69.9987,215.7421,270.5631,89.5225,-8.8873e-06,-1.99e-06,0.0,0 STARLINK-5180,1 55318U 23010BB  24001.98111095 -.00000199  00000-0 -88873-5 0  9999,2 55318  69.9987 215.7421 0002640 270.5631  89.5225 14.98331231 55152,6950.189,96.107,573.889,570.219,0.0
55318.0,STARLINK-5180,PAYLOAD,2024-01-02 21:58:40,14.9833063,0.0002633,69.9985,213.3844,271.1725,88.9133,1.7445e-05,1.15e-06,0.0,0 STARLINK-5180,1 55318U 23010BB  24002.91575002  .00000115  00000-0  17445-4 0  9997,2 55318  69.9985 213.3844 0002633 271.1725  88.9133 14.98330630 55294,6950.191,96.107,573.886,570.226,0.0
55318.0,STARLINK-5180,PAYLOAD,2024-01-02 23:34:48,14.98331123,0.0002634,69.9986,213.2162,271.1615,88.9242,2.2111e-05,1.71e-06,0.0,0 STARLINK-5180,1 55318U 23010BB  24002.98250953  .00000171  00000-0  22111-4 0  9997,2 55318  69.9986 213.2162 0002634 271.1615  88.9242 14.98331123 54115,6950.189,96.107,573.885,570.224,0.0
55318.0,STARLINK-5180,PAYLOAD,2024-01-03 14:00:01,14.98330828,0.0002616,69.9984,211.7008,270.8709,89.215,-6.8803e-06,-1.75e-06,0.0,0 STARLINK-5180,1 55318U 23010BB  24003.58335009 -.00000175  00000-0 -68803-5 0  9995,2 55318  69.9984 211.7008 0002616 270.8709  89.2150 14.98330828 55399,6950.19,96.107,573.874,570.237,0.0
55318.0,STARLINK-5180,PAYLOAD,2024-01-03 22:00:41,14.9833083,0.0002625,69.9984,210.8595,270.7608,89.325,-4.7716e-06,-1.5e-06,0.0,0 STARLINK-5180,1 55318U 23010BB  24003.91714977 -.00000150  00000-0 -47716-5 0  9990,2 55318  69.9984 210.8595 0002625 270.7608  89.3250 14.98330830 55448,6950.19,96.107,573.88,570.231,0.0
55318.0,STARLINK-5180,PAYLOAD,2024-01-03 23:36:49,14.98331271,0.0002626,69.9984,210.6913,270.9571,89.1287,5.7245e-07,-8.6e-07,0.0,0 STARLINK-5180,1 55318U 23010BB  24003.98390930 -.00000086  00000-0  57245-6 0  9992,2 55318  69.9984 210.6913 0002626 270.9571  89.1287 14.98331271 54269,6950.189,96.107,573.879,570.229,0.0
55318.0,STARLINK-5180,PAYLOAD,2024-01-04 14:02:02,14.98331886,0.0002641,69.9984,209.1769,269.927,90.1586,-3.3996e-07,-9.7e-07,0.0,0 STARLINK-5180,1 55318U 23010BB  24004.58474841 -.00000097  00000-0 -33996-6 0  9993,2 55318  69.9984 209.1769 0002641 269.9270  90.1586 14.98331886 55540,6950.187,96.107,573.888,570.217,0.0
55318.0,STARLINK-5180,PAYLOAD,2024-01-04 22:02:42,14.98331648,0.00025,69.9985,208.3351,266.016,94.0713,2.2631e-05,1.77e-06,0.0,0 STARLINK-5180,1 55318U 23010BB  24004.91854800  .00000177  00000-0  22631-4 0  9996,2 55318  69.9985 208.3351 0002500 266.0160  94.0713 14.98331648 55595,6950.188,96.107,573.79,570.315,0.0
55318.0,STARLINK-5180,PAYLOAD,2024-01-04 23:38:50,14.98335272,0.0002492,69.9985,208.1669,263.9601,96.1274,-2.5463e-05,-3.97e-06,0.0,0 STARLINK-5180,1 55318U 23010BB  24004.98530665 -.00000397  00000-0 -25463-4 0  9995,2 55318  69.9985 208.1669 0002492 263.9601  96.1274 14.98335272 54413,6950.177,96.107,573.774,570.31,0.0
55318.0,STARLINK-5180,PAYLOAD,2024-01-05 14:04:02,14.98376525,0.0002164,69.9988,206.6526,254.6726,105.4194,-0.00073223,-8.829e-05,0.0,0 STARLINK-5180,1 55318U 23010BB  24005.58614454 -.00008829  00000-0 -73223-3 0  9995,2 55318  69.9988 206.6526 0002164 254.6726 105.4194 14.98376525 55694,6950.049,96.104,573.418,570.41,0.0
55318.0,STARLINK-5180,PAYLOAD,2024-01-05 18:52:26,14.98379031,0.0002213,69.9988,206.1476,254.7606,105.3308,-0.00080366,-9.681e-05,0.0,0 STARLINK-5180,1 55318U 23010BB  24005.78641993 -.00009681  00000-0 -80366-3 0  9998,2 55318  69.9988 206.1476 0002213 254.7606 105.3308 14.98379031 54539,6950.041,96.104,573.444,570.368,0.0
55318.0,STARLINK-5180,PAYLOAD,2024-01-05 22:04:42,14.98358109,0.000212,69.9988,205.811,255.3202,104.7722,-0.00045456,-5.516e-05,0.0,0 STARLINK-5180,1 55318U 23010BB  24005.91994127 -.00005516  00000-0 -45456-3 0  9997,2 55318  69.9988 205.8110 0002120 255.3202 104.7722 14.98358109 55746,6950.106,96.105,573.444,570.498,0.0
55318.0,STARLINK-5180,PAYLOAD,2024-01-06 12:29:55,14.98330729,0.000252,69.9988,204.2967,267.7495,92.3375,-2.1926e-06,-1.19e-06,0.0,0 STARLINK-5180,1 55318U 23010BB  24006.52078696 -.00000119  00000-0 -21926-5 0  9991,2 55318  69.9988 204.2967 0002520 267.7495  92.3375 14.98330729 54646,6950.191,96.107,573.807,570.304,0.0
55318.0,STARLINK-5180,PAYLOAD,2024-01-06 22:06:44,14.983302,0.0002545,69.9989,203.2867,269.5014,90.5854,-1.5791e-05,-2.81e-06,0.0,0 STARLINK-5180,1 55318U 23010BB  24006.92134750 -.00000281  00000-0 -15791-4 0  9991,2 55318  69.9989 203.2867 0002545 269.5014  90.5854 14.98330200 55893,6950.192,96.107,573.826,570.288,0.0
55318.0,STARLINK-5180,PAYLOAD,2024-01-07 12:31:56,14.98330515,0.000257,69.9988,201.772,273.6313,86.4552,1.1338e-06,-7.9e-07,0.0,0 STARLINK-5180,1 55318U 23010BB  24007.52218676 -.00000079  00000-0  11338-5 0  9996,2 55318  69.9988 201.7720 0002570 273.6313  86.4552 14.98330515 54795,6950.191,96.107,573.842,570.27,0.0
55318.0,STARLINK-5180,PAYLOAD,2024-01-07 14:08:04,14.98330768,0.0002574,69.9988,201.6038,272.3931,87.6933,3.882e-06,-4.7e-07,0.0,0 STARLINK-5180,1 55318U 23010BB  24007.58894637 -.00000047  00000-0  38820-5 0  9999,2 55318  69.9988 201.6038 0002574 272.3931  87.6933 14.98330768 55991,6950.191,96.107,573.844,570.267,0.0
55318.0,STARLINK-5180,PAYLOAD,2024-01-07 22:08:45,14.98330616,0.0002572,69.9989,200.7623,272.5864,87.5001,3.4494e-06,-5.2e-07,0.0,0 STARLINK-5180,1 55318U 23010BB  24007.92274623 -.00000052  00000-0  34494-5 0  9993,2 55318  69.9989 200.7623 0002572 272.5864  87.5001 14.98330616 56041,6950.191,96.107,573.844,570.268,0.0
55318.0,STARLINK-5180,PAYLOAD,2024-01-08 14:10:05,14.98328614,0.0002562,69.999,199.0794,270.4449,89.6416,7.3159e-06,-6e-08,0.0,0 STARLINK-5180,1 55318U 23010BB  24008.59034712 -.00000006  00000-0  73159-5 0  9990,2 55318  69.9990 199.0794 0002562 270.4449  89.6416 14.98328614 56146,6950.197,96.107,573.843,570.282,0.0
55318.0,STARLINK-5180,PAYLOAD,2024-01-08 18:58:30,14.98329057,0.0002558,69.999,198.5744,270.4057,89.6809,1.2265e-05,5.3e-07,0.0,0 STARLINK-5180,1 55318U 23010BB  24008.79062676  .00000053  00000-0  12265-4 0  9993,2 55318  69.9990 198.5744 0002558 270.4057  89.6809 14.98329057 54983,6950.196,96.107,573.839,570.283,0.0
55318.0,STARLINK-5180,PAYLOAD,2024-01-08 22:10:46,14.98328295,0.0002558,69.9991,198.2379,270.5215,89.5651,4.2966e-06,-4.2e-07,0.0,0 STARLINK-5180,1 55318U 23010BB  24008.92414758 -.00000042  00000-0  42966-5 0  9991,2 55318  69.9991 198.2379 0002558 270.5215  89.5651 14.98328295 56194,6950.198,96.107,573.841,570.285,0.0
